OBJECT_NAME,OBJECT_ID,EPOCH,MEAN_MOTION,ECCENTRICITY,INCLINATION,RA_OF_ASC_NODE,ARG_OF_PERICENTER,MEAN_ANOMALY,EPHEMERIS_TYPE,CLASSIFICATION_TYPE,NORAD_CAT_ID,ELEMENT_SET_NO,REV_AT_EPOCH,BSTAR,MEAN_MOTION_DOT,MEAN_MOTION_DDOT
2026-134H,2026-134H,2026-07-06T16:09:42.964416,15.09874029,.0015272,97.7022,257.8744,208.1278,151.9127,0,U,69545,999,323,.32187E-3,.5159E-4,0
STARLINK-37880,2026-135A,2026-07-07T10:00:05.000256,15.70970977,.0001332,97.2844,216.5669,87.2544,281.0244,0,U,69546,999,456,-.20906E-1,-.2261611E-1,0
STARLINK-37881,2026-135B,2026-07-07T11:19:38.506080,15.81163620,.0001476,97.2834,216.6430,120.5438,239.5976,0,U,69547,999,346,.20011E-2,.408082E-2,0
STARLINK-37265,2026-135C,2026-07-07T00:40:39.587808,15.80917150,.0001605,97.2837,216.1747,108.8114,251.3329,0,U,69548,999,339,.11761E-2,.232313E-2,0
STARLINK-37871,2026-135D,2026-07-07T00:39:19.257408,15.80865436,.0001102,97.2844,216.1764,119.9823,240.1554,0,U,69549,999,339,.58733E-3,.114098E-2,0
STARLINK-37865,2026-135E,2026-07-07T05:10:42.360384,15.80842311,.0000844,97.2839,216.3792,86.0537,274.0828,0,U,69550,999,342,.11507E-2,.226363E-2,0
STARLINK-37862,2026-135F,2026-07-07T00:33:12.511008,15.80944357,.0001112,97.2844,216.1821,139.1577,220.9775,0,U,69551,999,339,.1733E-2,.347416E-2,0
STARLINK-37861,2026-135G,2026-07-07T12:40:08.665248,15.79404538,.0001461,97.2840,216.7206,165.8523,194.2785,0,U,69552,999,347,-.73283E-3,-.129857E-2,0
STARLINK-37859,2026-135H,2026-07-07T00:29:07.090080,15.80920050,.0000459,97.2853,216.1863,110.5539,249.5778,0,U,69553,999,339,.14782E-2,.294175E-2,0
STARLINK-37860,2026-135J,2026-07-07T00:28:43.355136,15.80952746,.0000853,97.2848,216.1878,124.6346,235.5003,0,U,69554,999,339,.1299E-2,.257787E-2,0
STARLINK-37858,2026-135K,2026-07-07T00:26:05.741664,15.80888349,.0001042,97.2847,216.1898,132.1114,228.0243,0,U,69555,999,339,.51717E-3,.100397E-2,0
STARLINK-37927,2026-135L,2026-07-07T00:25:45.770304,15.80866086,.0001085,97.2851,216.1903,58.4844,301.6530,0,U,69556,999,339,.78082E-3,.152409E-2,0
STARLINK-37929,2026-135M,2026-07-07T10:00:05.000256,15.75925945,.0001617,97.2846,216.6087,86.8637,18.2240,0,U,69557,999,456,-.17848E-1,-.2373233E-1,0
STARLINK-37954,2026-135N,2026-07-07T10:00:05.000256,15.75735703,.0001769,97.2847,216.6114,86.7448,24.5498,0,U,69558,999,456,-.17778E-1,-.2348438E-1,0
STARLINK-37958,2026-135P,2026-07-07T10:57:14.516928,15.81197842,.0000816,97.2854,216.6654,105.5963,254.5396,0,U,69559,999,346,.1884E-2,.383711E-2,0
STARLINK-37950,2026-135Q,2026-07-07T10:00:05.000256,15.80807059,.0000715,97.2847,216.6223,84.0751,50.7794,0,U,69560,999,456,.28939E-3,.5562E-3,0
STARLINK-37952,2026-135R,2026-07-07T00:17:01.749120,15.80957354,.0001008,97.2845,216.1981,94.2002,265.9382,0,U,69561,999,339,.17389E-2,.348854E-2,0
STARLINK-37935,2026-135S,2026-07-07T10:00:05.000256,15.74945681,.0001739,97.2847,216.6216,86.6334,48.9509,0,U,69562,999,456,-.18454E-1,-.2353617E-1,0
STARLINK-37936,2026-135T,2026-07-07T10:00:05.000256,15.76557951,.0001777,97.2850,216.6413,94.5865,86.3610,0,U,69563,999,456,-.16943E-1,-.2324856E-1,0
STARLINK-37932,2026-135U,2026-07-07T10:43:21.493056,15.80966338,.0001626,97.2843,216.6781,148.0860,212.0507,0,U,69564,999,346,.20179E-2,.407804E-2,0
STARLINK-37916,2026-135V,2026-07-07T10:42:32.640768,15.81059901,.0001302,97.2852,216.6790,111.2549,248.8859,0,U,69565,999,346,.15591E-2,.312933E-2,0
STARLINK-37909,2026-135W,2026-07-07T01:26:34.519200,15.80917415,.0001482,97.2835,216.2870,140.4426,219.6950,0,U,69566,999,340,.13465E-2,.267059E-2,0
STARLINK-37934,2026-135X,2026-07-07T10:38:05.764128,15.81011723,.0003261,97.2845,216.6838,125.2579,234.8995,0,U,69567,999,346,.14681E-2,.293381E-2,0
STARLINK-37938,2026-135Y,2026-07-07T10:00:05.000256,15.75574060,.0001782,97.2851,216.6562,98.4946,116.4500,0,U,69568,999,456,-.18728E-1,-.2440429E-1,0
STARLINK-37924,2026-135Z,2026-07-07T12:01:45.719040,15.80805346,.0000913,97.2847,216.7572,64.4167,295.7196,0,U,69569,999,347,.43981E-3,.84884E-3,0
SHIJIAN-31 (SJ-31),2026-136A,2026-07-07T06:18:55.186272,1.92221837,.6940525,63.4845,354.0116,171.8139,212.3449,0,U,69570,999,47,0,.266E-5,0
GUOWANG OBJECT A,2026-137A,2026-07-07T11:59:25.434816,13.89812313,.0012561,49.9993,174.5301,292.8938,67.0634,0,U,69572,999,284,-.29075E-4,-.182E-5,0
GUOWANG OBJECT B,2026-137B,2026-07-07T08:28:09.716736,13.89804031,.0011864,50.0020,175.0859,291.3397,68.6235,0,U,69573,999,283,-.65527E-4,-.227E-5,0
GUOWANG OBJECT C,2026-137C,2026-07-07T11:53:41.495424,13.89814786,.0011905,49.9955,174.4945,293.5436,66.4211,0,U,69574,999,285,.40943E-5,-.141E-5,0
