2026-134H               
1 69545U 26134H   26187.67341394  .00005159  00000+0  32187-3 0  9999
2 69545  97.7022 257.8744 0015272 208.1278 151.9127 15.09874029  3239
STARLINK-37880          
1 69546U 26135A   26188.41672454 -.02261611  00000+0 -20906-1 0  9993
2 69546  97.2844 216.5669 0001332  87.2544 281.0244 15.70970977  4568
STARLINK-37881          
1 69547U 26135B   26188.47197345  .00408082  00000+0  20011-2 0  9990
2 69547  97.2834 216.6430 0001476 120.5438 239.5976 15.81163620  3466
STARLINK-37265          
1 69548U 26135C   26188.02823597  .00232313  00000+0  11761-2 0  9991
2 69548  97.2837 216.1747 0001605 108.8114 251.3329 15.80917150  3390
STARLINK-37871          
1 69549U 26135D   26188.02730622  .00114098  00000+0  58733-3 0  9998
2 69549  97.2844 216.1764 0001102 119.9823 240.1554 15.80865436  3395
STARLINK-37865          
1 69550U 26135E   26188.21576806  .00226363  00000+0  11507-2 0  9999
2 69550  97.2839 216.3792 0000844  86.0537 274.0828 15.80842311  3423
STARLINK-37862          
1 69551U 26135F   26188.02306147  .00347416  00000+0  17330-2 0  9991
2 69551  97.2844 216.1821 0001112 139.1577 220.9775 15.80944357  3394
STARLINK-37861          
1 69552U 26135G   26188.52787807 -.00129857  00000+0 -73283-3 0  9992
2 69552  97.2840 216.7206 0001461 165.8523 194.2785 15.79404538  3471
STARLINK-37859          
1 69553U 26135H   26188.02022095  .00294175  00000+0  14782-2 0  9991
2 69553  97.2853 216.1863 0000459 110.5539 249.5778 15.80920050  3390
STARLINK-37860          
1 69554U 26135J   26188.01994624  .00257787  00000+0  12990-2 0  9994
2 69554  97.2848 216.1878 0000853 124.6346 235.5003 15.80952746  3394
STARLINK-37858          
1 69555U 26135K   26188.01812201  .00100397  00000+0  51717-3 0  9990
2 69555  97.2847 216.1898 0001042 132.1114 228.0243 15.80888349  3394
STARLINK-37927          
1 69556U 26135L   26188.01789086  .00152409  00000+0  78082-3 0  9990
2 69556  97.2851 216.1903 0001085  58.4844 301.6530 15.80866086  3395
STARLINK-37929          
1 69557U 26135M   26188.41672454 -.02373233  00000+0 -17848-1 0  9990
2 69557  97.2846 216.6087 0001617  86.8637  18.2240 15.75925945  4567
STARLINK-37954          
1 69558U 26135N   26188.41672454 -.02348438  00000+0 -17778-1 0  9992
2 69558  97.2847 216.6114 0001769  86.7448  24.5498 15.75735703  4563
STARLINK-37958          
1 69559U 26135P   26188.45641802  .00383711  00000+0  18840-2 0  9991
2 69559  97.2854 216.6654 0000816 105.5963 254.5396 15.81197842  3468
STARLINK-37950          
1 69560U 26135Q   26188.41672454  .00055620  00000+0  28939-3 0  9992
2 69560  97.2847 216.6223 0000715  84.0751  50.7794 15.80807059  4565
STARLINK-37952          
1 69561U 26135R   26188.01182580  .00348854  00000+0  17389-2 0  9995
2 69561  97.2845 216.1981 0001008  94.2002 265.9382 15.80957354  3395
STARLINK-37935          
1 69562U 26135S   26188.41672454 -.02353617  00000+0 -18454-1 0  9994
2 69562  97.2847 216.6216 0001739  86.6334  48.9509 15.74945681  4561
STARLINK-37936          
1 69563U 26135T   26188.41672454 -.02324856  00000+0 -16943-1 0  9999
2 69563  97.2850 216.6413 0001777  94.5865  86.3610 15.76557951  4564
STARLINK-37932          
1 69564U 26135U   26188.44677654  .00407804  00000+0  20179-2 0  9998
2 69564  97.2843 216.6781 0001626 148.0860 212.0507 15.80966338  3467
STARLINK-37916          
1 69565U 26135V   26188.44621112  .00312933  00000+0  15591-2 0  9997
2 69565  97.2852 216.6790 0001302 111.2549 248.8859 15.81059901  3462
STARLINK-37909          
1 69566U 26135W   26188.06012175  .00267059  00000+0  13465-2 0  9995
2 69566  97.2835 216.2870 0001482 140.4426 219.6950 15.80917415  3400
STARLINK-37934          
1 69567U 26135X   26188.44312227  .00293381  00000+0  14681-2 0  9997
2 69567  97.2845 216.6838 0003261 125.2579 234.8995 15.81011723  3469
STARLINK-37938          
1 69568U 26135Y   26188.41672454 -.02440429  00000+0 -18728-1 0  9992
2 69568  97.2851 216.6562 0001782  98.4946 116.4500 15.75574060  4566
STARLINK-37924          
1 69569U 26135Z   26188.50122360  .00084884  00000+0  43981-3 0  9995
2 69569  97.2847 216.7572 0000913  64.4167 295.7196 15.80805346  3478
SHIJIAN-31 (SJ-31)      
1 69570U 26136A   26188.26313873  .00000266  00000+0  00000+0 0  9995
2 69570  63.4845 354.0116 6940525 171.8139 212.3449  1.92221837   471
GUOWANG OBJECT A        
1 69572U 26137A   26188.49959994 -.00000182  00000+0 -29075-4 0  9990
2 69572  49.9993 174.5301 0012561 292.8938  67.0634 13.89812313  2840
GUOWANG OBJECT B        
1 69573U 26137B   26188.35289024 -.00000227  00000+0 -65527-4 0  9998
2 69573  50.0020 175.0859 0011864 291.3397  68.6235 13.89804031  2838
GUOWANG OBJECT C        
1 69574U 26137C   26188.49561916 -.00000141  00000+0  40943-5 0  9997
2 69574  49.9955 174.4945 0011905 293.5436  66.4211 13.89814786  2856
